{"format":"tle-catalog-v1","generatedAt":"2026-06-25T16:01:17.978Z","count":6895,"entries":[{"name":"CENTISPACE-1 GROUP 05 O*","line1":"1 69636U 26138J   26175.90730050 -.00000271  00000+0 -59365-4 0  9998","line2":"2 69636  55.1421 252.6345 0008282 295.2299  64.7816 14.15865742  1089"},{"name":"ELECTRON R/B","line1":"1 69647U 26142B   26175.78974237  .02465790  23330-5  84396-3 0  9997","line2":"2 69647  97.4334  73.7614 0143395 228.6797 130.2072 16.05257864   861"},{"name":"KUIPER-00538","line1":"1 69608U 26140S   26176.25002315  .00021807  00000+0  59613-3 0  9996","line2":"2 69608  51.8817 359.7762 0005383 255.7260  91.2818 15.37299830  2385"},{"name":"KUIPER-00540","line1":"1 69609U 26140T   26176.25002315  .00009651  00000+0  27591-3 0  9990","line2":"2 69609  51.8822 359.8151 0005346 309.8652  18.9297 15.36637830  1875"},{"name":"KUIPER-00541","line1":"1 69610U 26140U   26176.25002315  .00015205  00000+0  41187-3 0  9991","line2":"2 69610  51.8830 359.7494 0007142 237.4950 123.2629 15.37840632  2392"},{"name":"KUIPER-00542","line1":"1 69611U 26140V   26176.25002315  .00017825  00000+0  47689-3 0  9995","line2":"2 69611  51.8797 359.7313 0007740 221.7048 146.0370 15.38093115  1496"},{"name":"KUIPER-00543","line1":"1 69612U 26140W   26176.25002315  .00009442  00000+0  27273-3 0  9999","line2":"2 69612  51.8790 359.8268 0006562 327.4576 352.3472 15.36337355  1727"},{"name":"KUIPER-00544","line1":"1 69613U 26140X   26176.25002315  .00015919  00000+0  43257-3 0  9996","line2":"2 69613  51.8797 359.7532 0006593 237.6876 119.2742 15.37707416  1985"},{"name":"KUIPER-00546","line1":"1 69614U 26140Y   26176.25002315 -.01067925  00000+0 -28442-1 0  9991","line2":"2 69614  51.8801 359.6142 0015074 189.9637 235.7130 15.40489204  2427"},{"name":"KUIPER-00547","line1":"1 69615U 26140Z   26176.25002315  .00017875  00000+0  46349-3 0  9996","line2":"2 69615  51.8834 359.6803 0011799 208.1855 185.8729 15.39020265  1305"},{"name":"KUIPER-00549","line1":"1 69616U 26140AA  26176.25002315  .00010269  00000+0  29074-3 0  9993","line2":"2 69616  51.8798 359.7990 0006077 302.6335  31.6332 15.36861478  2326"},{"name":"KUIPER-00550","line1":"1 69617U 26140AB  26176.25002315  .00008664  00000+0  25893-3 0  9995","line2":"2 69617  51.8798 359.8659 0006293 353.1537 308.2457 15.35375717  1713"},{"name":"KUIPER-00551","line1":"1 69618U 26140AC  26176.25002315  .00019879  00000+0  50559-3 0  9993","line2":"2 69618  51.8800 359.6487 0013718 200.4989 208.0313 15.39511088  1300"},{"name":"KUIPER-00554","line1":"1 69619U 26140AD  26176.25002315  .00019209  00000+0  49507-3 0  9992","line2":"2 69619  51.8799 359.6723 0012021 208.7797 188.1477 15.39151234  2140"},{"name":"KUIPER-00555","line1":"1 69620U 26140AE  26176.25002315  .00020116  00000+0  51398-3 0  9994","line2":"2 69620  51.8833 359.6615 0012793 201.7106 201.2552 15.39375067  1944"},{"name":"KUIPER-00556","line1":"1 69621U 26140AF  26176.25002315 -.01081177  00000+0 -29068-1 0  9999","line2":"2 69621  51.8821 359.6495 0012828 193.2287 215.2134 15.39835079  2140"},{"name":"KUIPER-00557","line1":"1 69622U 26140AG  26176.25002315  .00017053  00000+0  44646-3 0  9990","line2":"2 69622  51.8822 359.6957 0011066 215.2386 171.0310 15.38767869  1305"},{"name":"KUIPER-00560","line1":"1 69623U 26140AH  26176.25002315  .00017222  00000+0  45701-3 0  9992","line2":"2 69623  51.8798 359.7159 0008960 223.3086 151.9363 15.38363235  2056"},{"name":"KUIPER-00561","line1":"1 69624U 26140AJ  26176.25002315  .00016281  00000+0  43456-3 0  9992","line2":"2 69624  51.8832 359.7271 0008341 222.7478 148.8006 15.38232073  2269"},{"name":"KUIPER-00564","line1":"1 69625U 26140AK  26176.25002315  .00018074  00000+0  47682-3 0  9990","line2":"2 69625  51.8822 359.7088 0009789 214.5130 165.2810 15.38500267  1725"},{"name":"KUIPER-00567","line1":"1 69626U 26140AL  26176.25002315 -.01148040  00000+0 -30783-1 0  9993","line2":"2 69626  51.8791 359.6392 0013441 195.3843 217.8130 15.40063474  2452"},{"name":"KUIPER-00573","line1":"1 69627U 26140AM  26176.25002315 -.01080380  00000+0 -29705-1 0  9998","line2":"2 69627  51.8798 359.6857 0010372 208.0967 182.2375 15.39200794  2390"},{"name":"KZ-11 R/B","line1":"1 69628U 26138H   26176.33440764  .00639635  93743-5  80735-3 0  9993","line2":"2 69628  55.1539 245.7993 0474374 100.9378 264.5374 15.18247717  1204"},{"name":"VICTUS HAZE PUMA","line1":"1 69646U 26142A   26176.30885789  .00004173  00000+0  19192-3 0  9995","line2":"2 69646  97.4481  73.8406 0021159 298.7364  61.1746 15.20706491   900"},{"name":"ZHUQUE-2E DEB","line1":"1 69629U 26128D   26175.85681083  .00403372  00000+0  30152-2 0  9992","line2":"2 69629  54.5256 267.6412 0055007 340.7409  19.1547 15.69037940  2398"},{"name":"ZHUQUE-2E DEB","line1":"1 69630U 26128E   26175.72539143  .00013419  00000+0  15778-3 0  9996","line2":"2 69630  54.5300 268.7676 0077353 352.6734   7.3160 15.58239093  2352"},{"name":"ZHUQUE-2E DEB","line1":"1 69631U 26128F   26175.89929200  .00192786  00000+0  19008-2 0  9996","line2":"2 69631  54.5272 267.8335 0067574 345.0825  14.8213 15.61982523  2386"},{"name":"ZHUQUE-2E DEB","line1":"1 69632U 26128G   26176.31177096  .08896625  12159-4  25166-2 0  9999","line2":"2 69632  54.5158 262.8053 0033458  23.1284 337.1273 16.25250176  2503"},{"name":"ZHUQUE-2E DEB","line1":"1 69634U 26128J   26175.82182031  .00546084  10481-3  30273-2 0  9994","line2":"2 69634  54.5373 266.6337 0091665  23.4853 337.0329 15.73043198  2271"},{"name":"ZHUQUE-2E DEB","line1":"1 69635U 26128K   26175.87508574  .01257078  62643-3  50631-2 0  9994","line2":"2 69635  54.5343 266.4254 0086712  15.6868 344.6828 15.80126925  1962"}]}