OBJECT_NAME,OBJECT_ID,EPOCH,MEAN_MOTION,ECCENTRICITY,INCLINATION,RA_OF_ASC_NODE,ARG_OF_PERICENTER,MEAN_ANOMALY,EPHEMERIS_TYPE,CLASSIFICATION_TYPE,NORAD_CAT_ID,ELEMENT_SET_NO,REV_AT_EPOCH,BSTAR,MEAN_MOTION_DOT,MEAN_MOTION_DDOT
KUIPER-00538,2026-140S,2026-06-25T06:00:02.000160,15.37299830,.0005383,51.8817,359.7762,255.7260,91.2818,0,U,69608,999,238,.59612952E-3,.21807E-3,0
KUIPER-00540,2026-140T,2026-06-25T06:00:02.000160,15.36637830,.0005346,51.8822,359.8151,309.8652,18.9297,0,U,69609,999,187,.27590946E-3,.9651E-4,0
KUIPER-00541,2026-140U,2026-06-25T06:00:02.000160,15.37840632,.00071421,51.8830,359.7494,237.4950,123.2629,0,U,69610,999,239,.41186947E-3,.15205E-3,0
KUIPER-00542,2026-140V,2026-06-25T06:00:02.000160,15.38093115,.000774,51.8797,359.7313,221.7048,146.0370,0,U,69611,999,149,.47688927E-3,.17825E-3,0
KUIPER-00543,2026-140W,2026-06-25T06:00:02.000160,15.36337355,.00065624,51.8790,359.8268,327.4576,352.3472,0,U,69612,999,172,.27273101E-3,.9442E-4,0
KUIPER-00544,2026-140X,2026-06-25T06:00:02.000160,15.37707416,.00065939,51.8797,359.7532,237.6876,119.2742,0,U,69613,999,198,.43256748E-3,.15919E-3,0
KUIPER-00546,2026-140Y,2026-06-25T06:00:02.000160,15.40489204,.00150749,51.8801,359.6142,189.9637,235.7130,0,U,69614,999,242,-.28442035E-1,-.1067925E-1,0
KUIPER-00547,2026-140Z,2026-06-25T06:00:02.000160,15.39020265,.00117995,51.8834,359.6803,208.1855,185.8729,0,U,69615,999,130,.46348964E-3,.17875E-3,0
KUIPER-00549,2026-140AA,2026-06-25T06:00:02.000160,15.36861478,.0006077,51.8798,359.7990,302.6335,31.6332,0,U,69616,999,232,.2907442E-3,.10269E-3,0
KUIPER-00550,2026-140AB,2026-06-25T06:00:02.000160,15.35375717,.00062931,51.8798,359.8659,353.1537,308.2457,0,U,69617,999,171,.25892668E-3,.8664E-4,0
KUIPER-00551,2026-140AC,2026-06-25T06:00:02.000160,15.39511088,.00137189,51.8800,359.6487,200.4989,208.0313,0,U,69618,999,130,.50559308E-3,.19879E-3,0
KUIPER-00554,2026-140AD,2026-06-25T06:00:02.000160,15.39151234,.00120216,51.8799,359.6723,208.7797,188.1477,0,U,69619,999,214,.49507072E-3,.19209E-3,0
KUIPER-00555,2026-140AE,2026-06-25T06:00:02.000160,15.39375067,.00127939,51.8833,359.6615,201.7106,201.2552,0,U,69620,999,194,.51397963E-3,.20116E-3,0
KUIPER-00556,2026-140AF,2026-06-25T06:00:02.000160,15.39835079,.00128281,51.8821,359.6495,193.2287,215.2134,0,U,69621,999,214,-.29068265E-1,-.1081177E-1,0
KUIPER-00557,2026-140AG,2026-06-25T06:00:02.000160,15.38767869,.0011066,51.8822,359.6957,215.2386,171.0310,0,U,69622,999,130,.44645652E-3,.17053E-3,0
KUIPER-00560,2026-140AH,2026-06-25T06:00:02.000160,15.38363235,.000896,51.8798,359.7159,223.3086,151.9363,0,U,69623,999,205,.45700811E-3,.17222E-3,0
KUIPER-00561,2026-140AJ,2026-06-25T06:00:02.000160,15.38232073,.00083411,51.8832,359.7271,222.7478,148.8006,0,U,69624,999,226,.43456199E-3,.16281E-3,0
KUIPER-00564,2026-140AK,2026-06-25T06:00:02.000160,15.38500267,.00097892,51.8822,359.7088,214.5130,165.2810,0,U,69625,999,172,.47681757E-3,.18074E-3,0
KUIPER-00567,2026-140AL,2026-06-25T06:00:02.000160,15.40063474,.00134411,51.8791,359.6392,195.3843,217.8130,0,U,69626,999,245,-.30782789E-1,-.114804E-1,0
KUIPER-00573,2026-140AM,2026-06-25T06:00:02.000160,15.39200794,.00103728,51.8798,359.6857,208.0967,182.2375,0,U,69627,999,239,-.29705223E-1,-.108038E-1,0
KZ-11 R/B,2026-138H,2026-06-25T08:01:32.820096,15.18247717,.04743745,55.1539,245.7993,100.9378,264.5374,0,U,69628,999,120,.80734593E-3,.639635E-2,.9374308E-5
ZHUQUE-2E DEB,2026-128D,2026-06-24T20:33:48.455712,15.69037940,.00550073,54.5256,267.6412,340.7409,19.1547,0,U,69629,999,239,.30151922E-2,.403372E-2,0
ZHUQUE-2E DEB,2026-128E,2026-06-24T17:24:33.819552,15.58239093,.00773535,54.5300,268.7676,352.6734,7.3160,0,U,69630,999,235,.15778411E-3,.13419E-3,0
ZHUQUE-2E DEB,2026-128F,2026-06-24T21:34:58.828800,15.61982523,.00675748,54.5272,267.8335,345.0825,14.8213,0,U,69631,999,238,.19008124E-2,.192786E-2,0
ZHUQUE-2E DEB,2026-128G,2026-06-25T07:28:57.010944,16.25250176,.00334583,54.5158,262.8053,23.1284,337.1273,0,U,69632,999,250,.25166284E-2,.8896625E-1,.12159412E-4
ZHUQUE-2E DEB,2026-128J,2026-06-24T19:43:25.274784,15.73043198,.00916654,54.5373,266.6337,23.4853,337.0329,0,U,69634,999,227,.30273051E-2,.546084E-2,.10480752E-3
ZHUQUE-2E DEB,2026-128K,2026-06-24T21:00:07.407936,15.80126925,.00867125,54.5343,266.4254,15.6868,344.6828,0,U,69635,999,196,.5063066E-2,.1257078E-1,.62642851E-3
CENTISPACE-1 GROUP 05 OBJECT J,2026-138J,2026-06-24T21:46:30.763200,14.15865742,.00082827,55.1421,252.6345,295.2299,64.7816,0,U,69636,999,108,-.59364591E-4,-.271E-5,0
VICTUS HAZE PUMA,2026-142A,2026-06-25T07:24:45.321696,15.20706491,.0021159,97.4481,73.8406,298.7364,61.1746,0,U,69646,999,90,.191918E-3,.4173E-4,0
ELECTRON R/B,2026-142B,2026-06-24T18:57:13.740768,16.05257864,.01433957,97.4334,73.7614,228.6797,130.2072,0,U,69647,999,86,.84395539E-3,.246579E-1,.2332956E-5
